COSMOS 1408 DEB         
1 50032U 82092RU  26064.23191318  .00006963  00000+0  13805-3 0  9990
2 50032  82.5666 333.8961 0013610 274.9709  84.9987 15.46716589238782
COSMOS 1408 DEB         
1 50058U 82092SW  26064.24051735  .00047978  00000+0  38272-3 0  9993
2 50058  82.6144 342.5800 0014857 138.8937 221.3448 15.70797033240968
COSMOS 1408 DEB         
1 50404U 82092ADS 26064.19737358  .00152133  00000+0  36812-2 0  9991
2 50404  82.1968 129.4355 0126013 270.1880  88.4922 15.32705844224489
COSMOS 1408 DEB         
1 50621U 82092ALR 26064.21115086  .00039532  00000+0  44451-3 0  9999
2 50621  82.5720 347.9834 0023133 200.3341 159.6999 15.62070761235354
